NORAD_CAT_ID,OBJECT_NAME,OBJECT_TYPE,EPOCH,MEAN_MOTION,ECCENTRICITY,INCLINATION,RA_OF_ASC_NODE,ARG_OF_PERICENTER,MEAN_ANOMALY,BSTAR,MEAN_MOTION_DOT,MEAN_MOTION_DDOT,TLE_LINE0,TLE_LINE1,TLE_LINE2,SEMIMAJOR_AXIS,PERIOD,APOGEE,PERIGEE,DECAYED
55398.0,STARLINK-5275,PAYLOAD,2023-09-21 21:08:19,14.98323902,0.0002545,70.0035,173.1635,252.0104,108.0778,5.2974e-05,5.39e-06,0.0,0 STARLINK-5275,1 55398U 23014H   23264.88077911  .00000539  00000-0  52974-4 0  9996,2 55398  70.0035 173.1635 0002545 252.0104 108.0778 14.98323902 37274,6950.212,96.107,573.846,570.308,0.0
55398.0,STARLINK-5275,PAYLOAD,2023-09-22 01:56:43,14.98329021,0.0002488,70.0036,172.6581,231.3304,128.7633,0.0001043,1.152e-05,0.0,0 STARLINK-5275,1 55398U 23014H   23265.08105424  .00001152  00000-0  10430-3 0  9992,2 55398  70.0036 172.6581 0002488 231.3304 128.7633 14.98329021 36363,6950.196,96.107,573.79,570.332,0.0
55398.0,STARLINK-5275,PAYLOAD,2023-09-22 03:32:50,14.98334056,0.0002528,70.002,172.4867,262.1034,97.9838,0.00017352,1.978e-05,0.0,0 STARLINK-5275,1 55398U 23014H   23265.14781023  .00001978  00000-0  17352-3 0  9990,2 55398  70.0020 172.4867 0002528 262.1034  97.9838 14.98334056 37312,6950.18,96.107,573.802,570.288,0.0
55398.0,STARLINK-5275,PAYLOAD,2023-09-22 21:10:19,14.98324933,0.0002884,70.002,170.6358,262.4707,97.6125,0.00020469,2.35e-05,0.0,0 STARLINK-5275,1 55398U 23014H   23265.88217437  .00002350  00000-0  20469-3 0  9992,2 55398  70.0020 170.6358 0002884 262.4707  97.6125 14.98324933 37423,6950.209,96.107,574.078,570.069,0.0
55398.0,STARLINK-5275,PAYLOAD,2023-09-23 01:58:43,14.9832815,0.0002542,70.0023,170.1305,246.7289,113.3602,0.0001789,2.042e-05,0.0,0 STARLINK-5275,1 55398U 23014H   23266.08245303  .00002042  00000-0  17890-3 0  9990,2 55398  70.0023 170.1305 0002542 246.7289 113.3602 14.98328150 36514,6950.199,96.107,573.83,570.297,0.0
55398.0,STARLINK-5275,PAYLOAD,2023-09-23 03:34:51,14.98329521,0.0002646,70.0021,169.9624,253.0621,107.0248,0.0001907,2.183e-05,0.0,0 STARLINK-5275,1 55398U 23014H   23266.14921196  .00002183  00000-0  19070-3 0  9996,2 55398  70.0021 169.9624 0002646 253.0621 107.0248 14.98329521 37462,6950.194,96.107,573.898,570.22,0.0
55398.0,STARLINK-5275,PAYLOAD,2023-09-24 02:00:44,14.98336209,0.0003041,70.0013,167.6066,258.6979,101.3838,-6.1915e-05,-8.32e-06,0.0,0 STARLINK-5275,1 55398U 23014H   23267.08385254 -.00000832  00000-0 -61915-4 0  9996,2 55398  70.0013 167.6066 0003041 258.6979 101.3838 14.98336209 36669,6950.174,96.107,574.152,569.925,0.0
55398.0,STARLINK-5275,PAYLOAD,2023-09-24 03:36:52,14.98337332,0.0003236,70.0011,167.4386,267.0853,92.9935,-3.7851e-05,-5.45e-06,0.0,0 STARLINK-5275,1 55398U 23014H   23267.15061112 -.00000545  00000-0 -37851-4 0  9991,2 55398  70.0011 167.4386 0003236 267.0853  92.9935 14.98337332 37618,6950.17,96.107,574.284,569.786,0.0
55398.0,STARLINK-5275,PAYLOAD,2023-09-24 21:14:21,14.98333721,0.0003069,70.0012,165.5873,258.9868,101.0946,-8.4669e-05,-1.103e-05,0.0,0 STARLINK-5275,1 55398U 23014H   23267.88497273 -.00001103  00000-0 -84669-4 0  9992,2 55398  70.0012 165.5873 0003069 258.9868 101.0946 14.98333721 37722,6950.181,96.107,574.179,569.913,0.0
55398.0,STARLINK-5275,PAYLOAD,2023-09-25 02:02:45,14.98337918,0.0002786,70.0019,165.0823,256.4563,103.6286,3.6317e-06,-5e-07,0.0,0 STARLINK-5275,1 55398U 23014H   23268.08524715 -.00000050  00000-0  36317-5 0  9994,2 55398  70.0019 165.0823 0002786 256.4563 103.6286 14.98337918 36815,6950.168,96.106,573.97,570.097,0.0
55398.0,STARLINK-5275,PAYLOAD,2023-09-25 10:03:25,14.98339756,0.0002776,70.0017,164.2407,263.511,96.5733,-1.6678e-05,-2.92e-06,0.0,0 STARLINK-5275,1 55398U 23014H   23268.41904481 -.00000292  00000-0 -16678-4 0  9999,2 55398  70.0017 164.2407 0002776 263.5110  96.5733 14.98339756 37807,6950.163,96.106,573.957,570.098,0.0
55398.0,STARLINK-5275,PAYLOAD,2023-09-25 21:16:21,14.98312071,0.0002795,70.0018,163.0626,256.9764,103.1083,0.00050735,5.963e-05,0.0,0 STARLINK-5275,1 55398U 23014H   23268.88636431  .00005963  00000-0  50735-3 0  9996,2 55398  70.0018 163.0626 0002795 256.9764 103.1083 14.98312071 37871,6950.248,96.108,574.056,570.171,0.0
55398.0,STARLINK-5275,PAYLOAD,2023-09-26 02:04:45,14.98324318,0.000275,70.0019,162.5577,255.9756,104.1097,0.00041635,4.878e-05,0.0,0 STARLINK-5275,1 55398U 23014H   23269.08664016  .00004878  00000-0  41635-3 0  9992,2 55398  70.0019 162.5577 0002750 255.9756 104.1097 14.98324318 36964,6950.21,96.107,573.987,570.164,0.0
55398.0,STARLINK-5275,PAYLOAD,2023-09-26 03:40:53,14.98331882,0.0002787,70.0019,162.3892,256.0744,104.0105,0.00030908,3.597e-05,0.0,0 STARLINK-5275,1 55398U 23014H   23269.15339777  .00003597  00000-0  30908-3 0  9991,2 55398  70.0019 162.3892 0002787 256.0744 104.0105 14.98331882 37910,6950.187,96.107,573.989,570.115,0.0
55398.0,STARLINK-5275,PAYLOAD,2023-09-26 18:06:07,14.98325895,0.0002534,70.0012,160.8745,236.8083,123.2833,-0.00011558,-1.472e-05,0.0,0 STARLINK-5275,1 55398U 23014H   23269.75425323 -.00001472  00000-0 -11558-3 0  9992,2 55398  70.0012 160.8745 0002534 236.8083 123.2833 14.98325895 37069,6950.206,96.107,573.832,570.309,0.0
55398.0,STARLINK-5275,PAYLOAD,2023-09-26 21:18:23,14.98318963,0.0002647,70.0025,160.5374,233.2946,126.797,-9.2914e-05,-1.201e-05,0.0,0 STARLINK-5275,1 55398U 23014H   23269.88777668 -.00001201  00000-0 -92914-4 0  9994,2 55398  70.0025 160.5374 0002647 233.2946 126.7970 14.98318963 38027,6950.227,96.108,573.932,570.252,0.0
55398.0,STARLINK-5275,PAYLOAD,2023-09-27 02:06:48,14.98318083,0.0002806,70.0015,160.0336,258.0558,102.0286,-0.000175,-2.18e-05,0.0,0 STARLINK-5275,1 55398U 23014H   23270.08806194 -.00002180  00000-0 -17500-3 0  9999,2 55398  70.0015 160.0336 0002806 258.0558 102.0286 14.98318083 37119,6950.23,96.108,574.045,570.145,0.0
55398.0,STARLINK-5275,PAYLOAD,2023-09-27 03:42:56,14.98319177,0.0002861,70.0015,159.8649,260.1456,99.938,-0.00015324,-1.92e-05,0.0,0 STARLINK-5275,1 55398U 23014H   23270.15482105 -.00001920  00000-0 -15324-3 0  9992,2 55398  70.0015 159.8649 0002861 260.1456  99.9380 14.98319177 38063,6950.226,96.108,574.08,570.103,0.0
55398.0,STARLINK-5275,PAYLOAD,2023-09-27 18:08:09,14.98324521,0.000289,70.0014,158.3501,262.939,97.144,-0.00014402,-1.811e-05,0.0,0 STARLINK-5275,1 55398U 23014H   23270.75566023 -.00001811  00000-0 -14402-3 0  9995,2 55398  70.0014 158.3501 0002890 262.9390  97.1440 14.98324521 37214,6950.21,96.107,574.083,570.066,0.0
55398.0,STARLINK-5275,PAYLOAD,2023-09-28 02:08:49,14.98327011,0.0002973,70.0009,157.508,261.9195,98.1627,-0.00012725,-1.611e-05,0.0,0 STARLINK-5275,1 55398U 23014H   23271.08945929 -.00001611  00000-0 -12725-3 0  9992,2 55398  70.0009 157.5080 0002973 261.9195  98.1627 14.98327011 38200,6950.202,96.107,574.133,570.001,0.0
55398.0,STARLINK-5275,PAYLOAD,2023-09-28 18:10:09,14.98328216,0.0003318,70.0002,155.8236,266.1659,93.9121,0.00018054,2.062e-05,0.0,0 STARLINK-5275,1 55398U 23014H   23271.75705154  .00002062  00000-0  18054-3 0  9990,2 55398  70.0002 155.8236 0003318 266.1659  93.9121 14.98328216 37369,6950.198,96.107,574.369,569.757,0.0
55398.0,STARLINK-5275,PAYLOAD,2023-09-28 21:22:25,14.9832955,0.0003304,70.0004,155.487,266.2899,93.7882,0.00019046,2.18e-05,0.0,0 STARLINK-5275,1 55398U 23014H   23271.89057061  .00002180  00000-0  19046-3 0  9995,2 55398  70.0004 155.4870 0003304 266.2899  93.7882 14.98329550 38324,6950.194,96.107,574.356,569.763,0.0
55398.0,STARLINK-5275,PAYLOAD,2023-09-29 18:12:09,14.98336507,0.0003602,69.9996,153.2979,271.7229,88.3518,9.961e-05,1.096e-05,0.0,0 STARLINK-5275,1 55398U 23014H   23272.75844841  .00001096  00000-0  99610-4 0  9992,2 55398  69.9996 153.2979 0003602 271.7229  88.3518 14.98336507 37512,6950.173,96.107,574.541,569.534,0.0
55398.0,STARLINK-5275,PAYLOAD,2023-09-30 02:12:49,14.98342106,0.0003394,69.9999,152.4574,266.8402,93.2369,0.00015994,1.816e-05,0.0,0 STARLINK-5275,1 55398U 23014H   23273.09224083  .00001816  00000-0  15994-3 0  9992,2 55398  69.9999 152.4574 0003394 266.8402  93.2369 14.98342106 37569,6950.155,96.106,574.379,569.662,0.0
55398.0,STARLINK-5275,PAYLOAD,2023-09-30 18:14:11,14.98330155,0.000348,69.9995,150.7741,274.4599,85.6163,-0.00014575,-1.832e-05,0.0,0 STARLINK-5275,1 55398U 23014H   23273.75985598 -.00001832  00000-0 -14575-3 0  9994,2 55398  69.9995 150.7741 0003480 274.4599  85.6163 14.98330155 37669,6950.192,96.107,574.476,569.639,0.0
55398.0,STARLINK-5275,PAYLOAD,2023-10-01 08:39:23,14.98332099,0.0003315,69.9997,149.2592,269.5469,90.531,-7.0282e-05,-9.32e-06,0.0,0 STARLINK-5275,1 55398U 23014H   23274.36069165 -.00000932  00000-0 -70282-4 0  9993,2 55398  69.9997 149.2592 0003315 269.5469  90.5310 14.98332099 38698,6950.186,96.107,574.355,569.747,0.0
55398.0,STARLINK-5275,PAYLOAD,2023-10-01 18:16:11,14.98336416,0.0003308,69.9994,148.2496,271.0905,88.9875,-3.5516e-05,-5.17e-06,0.0,0 STARLINK-5275,1 55398U 23014H   23274.76124716 -.00000517  00000-0 -35516-4 0  9991,2 55398  69.9994 148.2496 0003308 271.0905  88.9875 14.98336416 37819,6950.173,96.107,574.337,569.739,0.0
55398.0,STARLINK-5275,PAYLOAD,2023-10-01 21:28:27,14.98336808,0.0003361,69.9993,147.9129,273.5894,86.4881,-2.6452e-05,-4.09e-06,0.0,0 STARLINK-5275,1 55398U 23014H   23274.89476634 -.00000409  00000-0 -26452-4 0  9993,2 55398  69.9993 147.9129 0003361 273.5894  86.4881 14.98336808 38771,6950.172,96.107,574.373,569.701,0.0
55398.0,STARLINK-5275,PAYLOAD,2023-10-02 02:16:51,14.9834244,0.0003314,69.9994,147.408,272.8104,87.2676,3.7049e-05,3.49e-06,0.0,0 STARLINK-5275,1 55398U 23014H   23275.09503967  .00000349  00000-0  37049-4 0  9991,2 55398  69.9994 147.4080 0003314 272.8104  87.2676 14.98342440 37866,6950.154,96.106,574.323,569.716,0.0
55398.0,STARLINK-5275,PAYLOAD,2023-10-02 08:41:24,14.98337072,0.0002931,69.9999,146.7341,268.7876,91.2948,-8.3535e-05,-1.09e-05,0.0,0 STARLINK-5275,1 55398U 23014H   23275.36208484 -.00001090  00000-0 -83535-4 0  9994,2 55398  69.9999 146.7341 0002931 268.7876  91.2948 14.98337072 37904,6950.171,96.107,574.073,569.999,0.0
